[Satellite]
VERSION=1.1
NAME=SKYTERRA 1
NICKNAME=SKYTERRA 1
TLE1=1 37218U 10061A   15055.43438086 -.00000141  00000-0  10000-3 0  9992
TLE2=2 37218   4.2420 324.2548 0003742 187.0358  57.7109  1.00271100 15806
